[{"OBJECT_NAME":"ATLAS 5 CENTAUR DEB","OBJECT_ID":"2018-079CA","EPOCH":"2026-03-27T18:15:29.714112","MEAN_MOTION":1.79055688,"ECCENTRICITY":0.4679462,"INCLINATION":13.4195,"RA_OF_ASC_NODE":45.8854,"ARG_OF_PERICENTER":289.1099,"MEAN_ANOMALY":27.0331,"EPHEMERIS_TYPE":0,"CLASSIFICATION_TYPE":"U","NORAD_CAT_ID":46602,"ELEMENT_SET_NO":999,"REV_AT_EPOCH":3852,"BSTAR":0,"MEAN_MOTION_DOT":-1.44e-6,"MEAN_MOTION_DDOT":0},{"OBJECT_NAME":"ATLAS 5 CENTAUR DEB","OBJECT_ID":"2018-079CC","EPOCH":"2026-03-27T22:37:20.226144","MEAN_MOTION":1.74519793,"ECCENTRICITY":0.46186881,"INCLINATION":13.3638,"RA_OF_ASC_NODE":59.6755,"ARG_OF_PERICENTER":257.6086,"MEAN_ANOMALY":48.7146,"EPHEMERIS_TYPE":0,"CLASSIFICATION_TYPE":"U","NORAD_CAT_ID":46604,"ELEMENT_SET_NO":999,"REV_AT_EPOCH":4048,"BSTAR":0,"MEAN_MOTION_DOT":-1.08e-6,"MEAN_MOTION_DDOT":0},{"OBJECT_NAME":"GAOFEN-13 01","OBJECT_ID":"2020-071A","EPOCH":"2026-03-28T21:42:38.640096","MEAN_MOTION":1.00271428,"ECCENTRICITY":0.004279,"INCLINATION":0.3143,"RA_OF_ASC_NODE":85.1219,"ARG_OF_PERICENTER":121.482,"MEAN_ANOMALY":63.6146,"EPHEMERIS_TYPE":0,"CLASSIFICATION_TYPE":"U","NORAD_CAT_ID":46610,"ELEMENT_SET_NO":999,"REV_AT_EPOCH":2011,"BSTAR":0,"MEAN_MOTION_DOT":-3.82e-6,"MEAN_MOTION_DDOT":0},{"OBJECT_NAME":"ATLAS 5 CENTAUR DEB","OBJECT_ID":"2018-079CK","EPOCH":"2026-03-28T07:41:49.341408","MEAN_MOTION":1.70491839,"ECCENTRICITY":0.5846455,"INCLINATION":12.0483,"RA_OF_ASC_NODE":29.1029,"ARG_OF_PERICENTER":327.3238,"MEAN_ANOMALY":7.2291,"EPHEMERIS_TYPE":0,"CLASSIFICATION_TYPE":"U","NORAD_CAT_ID":46657,"ELEMENT_SET_NO":999,"REV_AT_EPOCH":3395,"BSTAR":0,"MEAN_MOTION_DOT":-2.31e-6,"MEAN_MOTION_DDOT":0},{"OBJECT_NAME":"ATLAS 5 CENTAUR DEB","OBJECT_ID":"2018-079DB","EPOCH":"2026-03-27T10:41:29.621472","MEAN_MOTION":1.71833336,"ECCENTRICITY":0.47754793,"INCLINATION":12.3248,"RA_OF_ASC_NODE":69.8299,"ARG_OF_PERICENTER":253.7776,"MEAN_ANOMALY":50.2268,"EPHEMERIS_TYPE":0,"CLASSIFICATION_TYPE":"U","NORAD_CAT_ID":46846,"ELEMENT_SET_NO":999,"REV_AT_EPOCH":3389,"BSTAR":0,"MEAN_MOTION_DOT":-1.24e-6,"MEAN_MOTION_DDOT":0},{"OBJECT_NAME":"ATLAS 5 CENTAUR DEB","OBJECT_ID":"2018-079DC","EPOCH":"2026-03-27T18:12:24.499296","MEAN_MOTION":1.77285509,"ECCENTRICITY":0.4708033,"INCLINATION":13.4849,"RA_OF_ASC_NODE":48.4085,"ARG_OF_PERICENTER":282.5324,"MEAN_ANOMALY":30.3741,"EPHEMERIS_TYPE":0,"CLASSIFICATION_TYPE":"U","NORAD_CAT_ID":46847,"ELEMENT_SET_NO":999,"REV_AT_EPOCH":3499,"BSTAR":0,"MEAN_MOTION_DOT":-1.37e-6,"MEAN_MOTION_DDOT":0},{"OBJECT_NAME":"ATLAS 5 CENTAUR DEB","OBJECT_ID":"2018-079DN","EPOCH":"2026-03-28T02:45:49.249440","MEAN_MOTION":1.69095199,"ECCENTRICITY":0.4641067,"INCLINATION":12.4775,"RA_OF_ASC_NODE":80.1044,"ARG_OF_PERICENTER":224.7545,"MEAN_ANOMALY":86.9096,"EPHEMERIS_TYPE":0,"CLASSIFICATION_TYPE":"U","NORAD_CAT_ID":46857,"ELEMENT_SET_NO":999,"REV_AT_EPOCH":3335,"BSTAR":0,"MEAN_MOTION_DOT":-8.2e-7,"MEAN_MOTION_DDOT":0},{"OBJECT_NAME":"TIANTONG-1 2","OBJECT_ID":"2020-082A","EPOCH":"2026-03-28T20:30:47.641248","MEAN_MOTION":1.00272989,"ECCENTRICITY":0.0002728,"INCLINATION":0.9096,"RA_OF_ASC_NODE":317.4131,"ARG_OF_PERICENTER":42.9273,"MEAN_ANOMALY":258.559,"EPHEMERIS_TYPE":0,"CLASSIFICATION_TYPE":"U","NORAD_CAT_ID":46916,"ELEMENT_SET_NO":999,"REV_AT_EPOCH":1984,"BSTAR":0,"MEAN_MOTION_DOT":-3.76e-6,"MEAN_MOTION_DDOT":0},{"OBJECT_NAME":"ATLAS 5 CENTAUR DEB","OBJECT_ID":"2014-055DE","EPOCH":"2026-03-27T06:30:20.311488","MEAN_MOTION":1.79154227,"ECCENTRICITY":0.4879245,"INCLINATION":19.2862,"RA_OF_ASC_NODE":174.2531,"ARG_OF_PERICENTER":111.0112,"MEAN_ANOMALY":306.5571,"EPHEMERIS_TYPE":0,"CLASSIFICATION_TYPE":"U","NORAD_CAT_ID":47096,"ELEMENT_SET_NO":999,"REV_AT_EPOCH":3565,"BSTAR":0,"MEAN_MOTION_DOT":-1.4e-7,"MEAN_MOTION_DDOT":0},{"OBJECT_NAME":"LUCAS (JDRS-1)","OBJECT_ID":"2020-089A","EPOCH":"2026-03-28T13:16:51.612096","MEAN_MOTION":1.00268771,"ECCENTRICITY":0.0003054,"INCLINATION":0.0488,"RA_OF_ASC_NODE":269.6222,"ARG_OF_PERICENTER":86.6465,"MEAN_ANOMALY":119.6457,"EPHEMERIS_TYPE":0,"CLASSIFICATION_TYPE":"U","NORAD_CAT_ID":47202,"ELEMENT_SET_NO":999,"REV_AT_EPOCH":1961,"BSTAR":0,"MEAN_MOTION_DOT":-2.54e-6,"MEAN_MOTION_DDOT":0},{"OBJECT_NAME":"SXM-7","OBJECT_ID":"2020-096A","EPOCH":"2026-03-28T10:57:27.855360","MEAN_MOTION":1.00270906,"ECCENTRICITY":0.0004751,"INCLINATION":0.0228,"RA_OF_ASC_NODE":121.2265,"ARG_OF_PERICENTER":7.8675,"MEAN_ANOMALY":135.972,"EPHEMERIS_TYPE":0,"CLASSIFICATION_TYPE":"U","NORAD_CAT_ID":47240,"ELEMENT_SET_NO":999,"REV_AT_EPOCH":663,"BSTAR":0,"MEAN_MOTION_DOT":-2.25e-6,"MEAN_MOTION_DDOT":0},{"OBJECT_NAME":"BREEZE-M DEB [TANK]","OBJECT_ID":"2020-097B","EPOCH":"2026-03-28T20:21:15.365664","MEAN_MOTION":2.20467631,"ECCENTRICITY":0.7305176,"INCLINATION":58.288,"RA_OF_ASC_NODE":124.8519,"ARG_OF_PERICENTER":105.2566,"MEAN_ANOMALY":339.564,"EPHEMERIS_TYPE":0,"CLASSIFICATION_TYPE":"U","NORAD_CAT_ID":47243,"ELEMENT_SET_NO":999,"REV_AT_EPOCH":4243,"BSTAR":0.0011054,"MEAN_MOTION_DOT":9.68e-6,"MEAN_MOTION_DDOT":0},{"OBJECT_NAME":"CMS-01","OBJECT_ID":"2020-099A","EPOCH":"2026-03-28T20:18:48.788928","MEAN_MOTION":1.00271211,"ECCENTRICITY":0.0005798,"INCLINATION":0.0824,"RA_OF_ASC_NODE":93.8802,"ARG_OF_PERICENTER":198.7665,"MEAN_ANOMALY":281.2987,"EPHEMERIS_TYPE":0,"CLASSIFICATION_TYPE":"U","NORAD_CAT_ID":47256,"ELEMENT_SET_NO":999,"REV_AT_EPOCH":1939,"BSTAR":0,"MEAN_MOTION_DOT":-1.84e-6,"MEAN_MOTION_DDOT":0},{"OBJECT_NAME":"TURKSAT 5A","OBJECT_ID":"2021-001A","EPOCH":"2026-03-28T06:52:38.548128","MEAN_MOTION":1.00272631,"ECCENTRICITY":1.624e-5,"INCLINATION":0.0163,"RA_OF_ASC_NODE":113.5111,"ARG_OF_PERICENTER":144.0999,"MEAN_ANOMALY":62.1547,"EPHEMERIS_TYPE":0,"CLASSIFICATION_TYPE":"U","NORAD_CAT_ID":47306,"ELEMENT_SET_NO":999,"REV_AT_EPOCH":1915,"BSTAR":0,"MEAN_MOTION_DOT":1.35e-6,"MEAN_MOTION_DDOT":0},{"OBJECT_NAME":"FALCON 9 R/B","OBJECT_ID":"2021-001B","EPOCH":"2026-03-28T10:03:44.048448","MEAN_MOTION":1.65156396,"ECCENTRICITY":0.77791082,"INCLINATION":15.8785,"RA_OF_ASC_NODE":210.3346,"ARG_OF_PERICENTER":351.3249,"MEAN_ANOMALY":0.4664,"EPHEMERIS_TYPE":0,"CLASSIFICATION_TYPE":"U","NORAD_CAT_ID":47307,"ELEMENT_SET_NO":999,"REV_AT_EPOCH":2882,"BSTAR":0.0017151316,"MEAN_MOTION_DOT":5.24e-6,"MEAN_MOTION_DDOT":0},{"OBJECT_NAME":"TIANTONG-1 3","OBJECT_ID":"2021-003A","EPOCH":"2026-03-28T20:59:38.496768","MEAN_MOTION":1.0027009,"ECCENTRICITY":0.0003292,"INCLINATION":1.8284,"RA_OF_ASC_NODE":334.5144,"ARG_OF_PERICENTER":28.8968,"MEAN_ANOMALY":219.2888,"EPHEMERIS_TYPE":0,"CLASSIFICATION_TYPE":"U","NORAD_CAT_ID":47321,"ELEMENT_SET_NO":999,"REV_AT_EPOCH":1915,"BSTAR":0,"MEAN_MOTION_DOT":-1.75e-6,"MEAN_MOTION_DDOT":0},{"OBJECT_NAME":"TJS-6","OBJECT_ID":"2021-010A","EPOCH":"2026-03-28T19:03:25.729056","MEAN_MOTION":1.00271321,"ECCENTRICITY":0.0003153,"INCLINATION":0.3925,"RA_OF_ASC_NODE":89.4236,"ARG_OF_PERICENTER":296.8552,"MEAN_ANOMALY":264.2376,"EPHEMERIS_TYPE":0,"CLASSIFICATION_TYPE":"U","NORAD_CAT_ID":47613,"ELEMENT_SET_NO":999,"REV_AT_EPOCH":1900,"BSTAR":0,"MEAN_MOTION_DOT":2.3e-7,"MEAN_MOTION_DDOT":0}]
