ATLAS 5 CENTAUR DEB     
1 46602U 18079CA  26086.76076058 -.00000144  00000+0  00000+0 0  9992
2 46602  13.4195  45.8854 4679462 289.1099  27.0331  1.79055688 38526
ATLAS 5 CENTAUR DEB     
1 46604U 18079CC  26086.94259521 -.00000108  00000+0  00000+0 0  9992
2 46604  13.3638  59.6755 4618688 257.6086  48.7146  1.74519793 40480
GAOFEN-13 01            
1 46610U 20071A   26087.90461389 -.00000382  00000+0  00000+0 0  9992
2 46610   0.3143  85.1219 0042790 121.4820  63.6146  1.00271428 20111
ATLAS 5 CENTAUR DEB     
1 46657U 18079CK  26087.32070997 -.00000231  00000+0  00000+0 0  9998
2 46657  12.0483  29.1029 5846455 327.3238   7.2291  1.70491839 33959
ATLAS 5 CENTAUR DEB     
1 46846U 18079DB  26086.44548173 -.00000124  00000+0  00000+0 0  9997
2 46846  12.3248  69.8299 4775479 253.7776  50.2268  1.71833336 33894
ATLAS 5 CENTAUR DEB     
1 46847U 18079DC  26086.75861689 -.00000137  00000+0  00000+0 0  9996
2 46847  13.4849  48.4085 4708033 282.5324  30.3741  1.77285509 34997
ATLAS 5 CENTAUR DEB     
1 46857U 18079DN  26087.11515335 -.00000082  00000+0  00000+0 0  9991
2 46857  12.4775  80.1044 4641067 224.7545  86.9096  1.69095199 33353
TIANTONG-1 2            
1 46916U 20082A   26087.85471807 -.00000376  00000+0  00000+0 0  9996
2 46916   0.9096 317.4131 0002728  42.9273 258.5590  1.00272989 19842
ATLAS 5 CENTAUR DEB     
1 47096U 14055DE  26086.27106842 -.00000014  00000+0  00000+0 0  9997
2 47096  19.2862 174.2531 4879245 111.0112 306.5571  1.79154227 35659
LUCAS (JDRS-1)          
1 47202U 20089A   26087.55337514 -.00000254  00000+0  00000+0 0  9990
2 47202   0.0488 269.6222 0003054  86.6465 119.6457  1.00268771 19615
SXM-7                   
1 47240U 20096A   26087.45657240 -.00000225  00000+0  00000+0 0  9998
2 47240   0.0228 121.2265 0004751   7.8675 135.9720  1.00270906  6637
BREEZE-M DEB [TANK]     
1 47243U 20097B   26087.84809451  .00000968  00000+0  11054-2 0  9995
2 47243  58.2880 124.8519 7305176 105.2566 339.5640  2.20467631 42431
CMS-01                  
1 47256U 20099A   26087.84639802 -.00000184  00000+0  00000+0 0  9999
2 47256   0.0824  93.8802 0005798 198.7665 281.2987  1.00271211 19395
TURKSAT 5A              
1 47306U 21001A   26087.28655727  .00000135  00000+0  00000+0 0  9996
2 47306   0.0163 113.5111 0000162 144.0999  62.1547  1.00272631 19153
FALCON 9 R/B            
1 47307U 21001B   26087.41925982  .00000524  00000+0  17151-2 0  9995
2 47307  15.8785 210.3346 7779108 351.3249   0.4664  1.65156396 28824
TIANTONG-1 3            
1 47321U 21003A   26087.87475112 -.00000175  00000+0  00000+0 0  9993
2 47321   1.8284 334.5144 0003292  28.8968 219.2888  1.00270090 19156
TJS-6                   
1 47613U 21010A   26087.79404779  .00000023  00000+0  00000+0 0  9998
2 47613   0.3925  89.4236 0003153 296.8552 264.2376  1.00271321 19000
